STARLINK-36102          
1 66849U 25281B   25347.71860083 -.00046329  00000+0 -15545-3 0  9993
2 66849  43.0006 116.3234 0003415 283.7385  76.3109 15.88998541  2957
STARLINK-36105          
1 66850U 25281C   25347.34094280  .00470482  00000+0  14499-2 0  9997
2 66850  43.0001 118.6551 0003704 242.7063 117.3434 15.89821555  2891
STARLINK-36094          
1 66851U 25281D   25347.34052878 -.00510231  00000+0 -17495-2 0  9993
2 66851  43.0005 118.6519 0003228 315.9099  44.1517 15.89812920  2898
STARLINK-35992          
1 66852U 25281E   25347.71664739 -.00613781  00000+0 -22152-2 0  9990
2 66852  42.9998 116.3082 0003651 297.4358  62.6145 15.89029664  2954
STARLINK-35986          
1 66853U 25281F   25347.27671808 -.00056272  00000+0 -17870-3 0  9995
2 66853  43.0005 119.0322 0002309 242.4337 117.6303 15.90153253  2882
STARLINK-36087          
1 66854U 25281G   25347.52709825  .00954127  39150-3  28311-2 0  9992
2 66854  43.0001 117.4673 0011818 281.6717  78.2831 15.91597639  2926
STARLINK-36090          
1 66855U 25281H   25347.33894537 -.01435026  00000+0 -59008-2 0  9997
2 66855  43.0006 118.6375 0010882 159.1339 200.9981 15.87671578  2899
STARLINK-36072          
1 66856U 25281J   25347.71513865 -.00297450  00000+0 -10338-2 0  9991
2 66856  43.0008 116.2949 0002183 294.8736  65.1911 15.89078858  2951
STARLINK-36083          
1 66857U 25281K   25347.77757516 -.00307582  00000+0 -10781-2 0  9991
2 66857  43.0002 115.9020 0001527 288.1243  71.9465 15.88938830  2966
STARLINK-35118          
1 66858U 25281L   25347.27434635  .00215829  00000+0  66906-3 0  9992
2 66858  43.0003 119.0123 0003321 249.8250 110.2268 15.90299033  2880
STARLINK-35646          
1 66859U 25281M   25347.77577818  .00565833  13299-3  16616-2 0  9992
2 66859  43.0005 115.8872 0003721 336.0212  24.0489 15.91879357  2969
STARLINK-35987          
1 66860U 25281N   25347.71116888 -.00333652  00000+0 -11580-2 0  9995
2 66860  43.0004 116.2611 0002372 287.3827  72.6788 15.89189930  2955
