CCSDS_OMM_VERS = 2.0
CREATION_DATE  = 
ORIGINATOR     = 

OBJECT_NAME    = STARLINK-36102
OBJECT_ID      = 2025-281B
CENTER_NAME    = EARTH
REF_FRAME      = TEME
TIME_SYSTEM    = UTC
MEAN_ELEMENT_THEORY = SGP/SGP4

EPOCH          = 2025-12-13T17:14:47.111712
MEAN_MOTION    = 15.88998541
ECCENTRICITY   = .00034155
INCLINATION    = 43.0006
RA_OF_ASC_NODE = 116.3234
ARG_OF_PERICENTER = 283.7385
MEAN_ANOMALY   = 76.3109

EPHEMERIS_TYPE = 0
CLASSIFICATION_TYPE = U
NORAD_CAT_ID   = 66849
ELEMENT_SET_NO = 999
REV_AT_EPOCH   = 295
BSTAR          = -.15545097E-3
MEAN_MOTION_DOT = -.46329E-3
MEAN_MOTION_DDOT = 0

CCSDS_OMM_VERS = 2.0
CREATION_DATE  = 
ORIGINATOR     = 

OBJECT_NAME    = STARLINK-36105
OBJECT_ID      = 2025-281C
CENTER_NAME    = EARTH
REF_FRAME      = TEME
TIME_SYSTEM    = UTC
MEAN_ELEMENT_THEORY = SGP/SGP4

EPOCH          = 2025-12-13T08:10:57.457920
MEAN_MOTION    = 15.89821555
ECCENTRICITY   = .00037044
INCLINATION    = 43.0001
RA_OF_ASC_NODE = 118.6551
ARG_OF_PERICENTER = 242.7063
MEAN_ANOMALY   = 117.3434

EPHEMERIS_TYPE = 0
CLASSIFICATION_TYPE = U
NORAD_CAT_ID   = 66850
ELEMENT_SET_NO = 999
REV_AT_EPOCH   = 289
BSTAR          = .14498555E-2
MEAN_MOTION_DOT = .470482E-2
MEAN_MOTION_DDOT = 0

CCSDS_OMM_VERS = 2.0
CREATION_DATE  = 
ORIGINATOR     = 

OBJECT_NAME    = STARLINK-36094
OBJECT_ID      = 2025-281D
CENTER_NAME    = EARTH
REF_FRAME      = TEME
TIME_SYSTEM    = UTC
MEAN_ELEMENT_THEORY = SGP/SGP4

EPOCH          = 2025-12-13T08:10:21.686592
MEAN_MOTION    = 15.89812920
ECCENTRICITY   = .00032289
INCLINATION    = 43.0005
RA_OF_ASC_NODE = 118.6519
ARG_OF_PERICENTER = 315.9099
MEAN_ANOMALY   = 44.1517

EPHEMERIS_TYPE = 0
CLASSIFICATION_TYPE = U
NORAD_CAT_ID   = 66851
ELEMENT_SET_NO = 999
REV_AT_EPOCH   = 289
BSTAR          = -.17495021E-2
MEAN_MOTION_DOT = -.510231E-2
MEAN_MOTION_DDOT = 0

CCSDS_OMM_VERS = 2.0
CREATION_DATE  = 
ORIGINATOR     = 

OBJECT_NAME    = STARLINK-35992
OBJECT_ID      = 2025-281E
CENTER_NAME    = EARTH
REF_FRAME      = TEME
TIME_SYSTEM    = UTC
MEAN_ELEMENT_THEORY = SGP/SGP4

EPOCH          = 2025-12-13T17:11:58.334496
MEAN_MOTION    = 15.89029664
ECCENTRICITY   = .00036513
INCLINATION    = 42.9998
RA_OF_ASC_NODE = 116.3082
ARG_OF_PERICENTER = 297.4358
MEAN_ANOMALY   = 62.6145

EPHEMERIS_TYPE = 0
CLASSIFICATION_TYPE = U
NORAD_CAT_ID   = 66852
ELEMENT_SET_NO = 999
REV_AT_EPOCH   = 295
BSTAR          = -.22152341E-2
MEAN_MOTION_DOT = -.613781E-2
MEAN_MOTION_DDOT = 0

CCSDS_OMM_VERS = 2.0
CREATION_DATE  = 
ORIGINATOR     = 

OBJECT_NAME    = STARLINK-35986
OBJECT_ID      = 2025-281F
CENTER_NAME    = EARTH
REF_FRAME      = TEME
TIME_SYSTEM    = UTC
MEAN_ELEMENT_THEORY = SGP/SGP4

EPOCH          = 2025-12-13T06:38:28.442112
MEAN_MOTION    = 15.90153253
ECCENTRICITY   = .00023091
INCLINATION    = 43.0005
RA_OF_ASC_NODE = 119.0322
ARG_OF_PERICENTER = 242.4337
MEAN_ANOMALY   = 117.6303

EPHEMERIS_TYPE = 0
CLASSIFICATION_TYPE = U
NORAD_CAT_ID   = 66853
ELEMENT_SET_NO = 999
REV_AT_EPOCH   = 288
BSTAR          = -.17869687E-3
MEAN_MOTION_DOT = -.56272E-3
MEAN_MOTION_DDOT = 0

CCSDS_OMM_VERS = 2.0
CREATION_DATE  = 
ORIGINATOR     = 

OBJECT_NAME    = STARLINK-36087
OBJECT_ID      = 2025-281G
CENTER_NAME    = EARTH
REF_FRAME      = TEME
TIME_SYSTEM    = UTC
MEAN_ELEMENT_THEORY = SGP/SGP4

EPOCH          = 2025-12-13T12:39:01.288800
MEAN_MOTION    = 15.91597639
ECCENTRICITY   = .00118184
INCLINATION    = 43.0001
RA_OF_ASC_NODE = 117.4673
ARG_OF_PERICENTER = 281.6717
MEAN_ANOMALY   = 78.2831

EPHEMERIS_TYPE = 0
CLASSIFICATION_TYPE = U
NORAD_CAT_ID   = 66854
ELEMENT_SET_NO = 999
REV_AT_EPOCH   = 292
BSTAR          = .28310803E-2
MEAN_MOTION_DOT = .954127E-2
MEAN_MOTION_DDOT = .39149778E-3

CCSDS_OMM_VERS = 2.0
CREATION_DATE  = 
ORIGINATOR     = 

OBJECT_NAME    = STARLINK-36090
OBJECT_ID      = 2025-281H
CENTER_NAME    = EARTH
REF_FRAME      = TEME
TIME_SYSTEM    = UTC
MEAN_ELEMENT_THEORY = SGP/SGP4

EPOCH          = 2025-12-13T08:08:04.879968
MEAN_MOTION    = 15.87671578
ECCENTRICITY   = .00108829
INCLINATION    = 43.0006
RA_OF_ASC_NODE = 118.6375
ARG_OF_PERICENTER = 159.1339
MEAN_ANOMALY   = 200.9981

EPHEMERIS_TYPE = 0
CLASSIFICATION_TYPE = U
NORAD_CAT_ID   = 66855
ELEMENT_SET_NO = 999
REV_AT_EPOCH   = 289
BSTAR          = -.590076E-2
MEAN_MOTION_DOT = -.1435026E-1
MEAN_MOTION_DDOT = 0

CCSDS_OMM_VERS = 2.0
CREATION_DATE  = 
ORIGINATOR     = 

OBJECT_NAME    = STARLINK-36072
OBJECT_ID      = 2025-281J
CENTER_NAME    = EARTH
REF_FRAME      = TEME
TIME_SYSTEM    = UTC
MEAN_ELEMENT_THEORY = SGP/SGP4

EPOCH          = 2025-12-13T17:09:47.979360
MEAN_MOTION    = 15.89078858
ECCENTRICITY   = .00021837
INCLINATION    = 43.0008
RA_OF_ASC_NODE = 116.2949
ARG_OF_PERICENTER = 294.8736
MEAN_ANOMALY   = 65.1911

EPHEMERIS_TYPE = 0
CLASSIFICATION_TYPE = U
NORAD_CAT_ID   = 66856
ELEMENT_SET_NO = 999
REV_AT_EPOCH   = 295
BSTAR          = -.10338399E-2
MEAN_MOTION_DOT = -.29745E-2
MEAN_MOTION_DDOT = 0

CCSDS_OMM_VERS = 2.0
CREATION_DATE  = 
ORIGINATOR     = 

OBJECT_NAME    = STARLINK-36083
OBJECT_ID      = 2025-281K
CENTER_NAME    = EARTH
REF_FRAME      = TEME
TIME_SYSTEM    = UTC
MEAN_ELEMENT_THEORY = SGP/SGP4

EPOCH          = 2025-12-13T18:39:42.493824
MEAN_MOTION    = 15.88938830
ECCENTRICITY   = .00015275
INCLINATION    = 43.0002
RA_OF_ASC_NODE = 115.9020
ARG_OF_PERICENTER = 288.1243
MEAN_ANOMALY   = 71.9465

EPHEMERIS_TYPE = 0
CLASSIFICATION_TYPE = U
NORAD_CAT_ID   = 66857
ELEMENT_SET_NO = 999
REV_AT_EPOCH   = 296
BSTAR          = -.10781444E-2
MEAN_MOTION_DOT = -.307582E-2
MEAN_MOTION_DDOT = 0

CCSDS_OMM_VERS = 2.0
CREATION_DATE  = 
ORIGINATOR     = 

OBJECT_NAME    = STARLINK-35118
OBJECT_ID      = 2025-281L
CENTER_NAME    = EARTH
REF_FRAME      = TEME
TIME_SYSTEM    = UTC
MEAN_ELEMENT_THEORY = SGP/SGP4

EPOCH          = 2025-12-13T06:35:03.524640
MEAN_MOTION    = 15.90299033
ECCENTRICITY   = .00033218
INCLINATION    = 43.0003
RA_OF_ASC_NODE = 119.0123
ARG_OF_PERICENTER = 249.8250
MEAN_ANOMALY   = 110.2268

EPHEMERIS_TYPE = 0
CLASSIFICATION_TYPE = U
NORAD_CAT_ID   = 66858
ELEMENT_SET_NO = 999
REV_AT_EPOCH   = 288
BSTAR          = .66906156E-3
MEAN_MOTION_DOT = .215829E-2
MEAN_MOTION_DDOT = 0

CCSDS_OMM_VERS = 2.0
CREATION_DATE  = 
ORIGINATOR     = 

OBJECT_NAME    = STARLINK-35646
OBJECT_ID      = 2025-281M
CENTER_NAME    = EARTH
REF_FRAME      = TEME
TIME_SYSTEM    = UTC
MEAN_ELEMENT_THEORY = SGP/SGP4

EPOCH          = 2025-12-13T18:37:07.234752
MEAN_MOTION    = 15.91879357
ECCENTRICITY   = .0003721
INCLINATION    = 43.0005
RA_OF_ASC_NODE = 115.8872
ARG_OF_PERICENTER = 336.0212
MEAN_ANOMALY   = 24.0489

EPHEMERIS_TYPE = 0
CLASSIFICATION_TYPE = U
NORAD_CAT_ID   = 66859
ELEMENT_SET_NO = 999
REV_AT_EPOCH   = 296
BSTAR          = .16616396E-2
MEAN_MOTION_DOT = .565833E-2
MEAN_MOTION_DDOT = .13299212E-3

CCSDS_OMM_VERS = 2.0
CREATION_DATE  = 
ORIGINATOR     = 

OBJECT_NAME    = STARLINK-35987
OBJECT_ID      = 2025-281N
CENTER_NAME    = EARTH
REF_FRAME      = TEME
TIME_SYSTEM    = UTC
MEAN_ELEMENT_THEORY = SGP/SGP4

EPOCH          = 2025-12-13T17:04:04.991232
MEAN_MOTION    = 15.89189930
ECCENTRICITY   = .00023726
INCLINATION    = 43.0004
RA_OF_ASC_NODE = 116.2611
ARG_OF_PERICENTER = 287.3827
MEAN_ANOMALY   = 72.6788

EPHEMERIS_TYPE = 0
CLASSIFICATION_TYPE = U
NORAD_CAT_ID   = 66860
ELEMENT_SET_NO = 999
REV_AT_EPOCH   = 295
BSTAR          = -.11579528E-2
MEAN_MOTION_DOT = -.333652E-2
MEAN_MOTION_DDOT = 0

